<?xml version="1.0" encoding="UTF-8"?>
<ndm xmlns:xsi="http://www.w3.org/2001/XMLSchema-instance" xsi:noNamespaceSchemaLocation="https://sanaregistry.org/r/ndmxml_unqualified/ndmxml-2.0.0-master-2.0.xsd">
<omm id="CCSDS_OMM_VERS" version="2.0">
<header><CREATION_DATE/><ORIGINATOR/></header><body><segment><metadata><OBJECT_NAME>ORBCOMM FM37</OBJECT_NAME><OBJECT_ID>2008-031E</OBJECT_ID><CENTER_NAME>EARTH</CENTER_NAME><REF_FRAME>TEME</REF_FRAME><TIME_SYSTEM>UTC</TIME_SYSTEM><MEAN_ELEMENT_THEORY>SGP4</MEAN_ELEMENT_THEORY></metadata><data><meanElements><EPOCH>2025-05-10T19:44:54.612384</EPOCH><MEAN_MOTION>14.79650265</MEAN_MOTION><ECCENTRICITY>.0005648</ECCENTRICITY><INCLINATION>48.4387</INCLINATION><RA_OF_ASC_NODE>161.2494</RA_OF_ASC_NODE><ARG_OF_PERICENTER>221.0065</ARG_OF_PERICENTER><MEAN_ANOMALY>309.1212</MEAN_ANOMALY></meanElements><tleParameters><EPHEMERIS_TYPE>0</EPHEMERIS_TYPE><CLASSIFICATION_TYPE>U</CLASSIFICATION_TYPE><NORAD_CAT_ID>33064</NORAD_CAT_ID><ELEMENT_SET_NO>999</ELEMENT_SET_NO><REV_AT_EPOCH>90851</REV_AT_EPOCH><BSTAR>.21382E-3</BSTAR><MEAN_MOTION_DOT>.1409E-4</MEAN_MOTION_DOT><MEAN_MOTION_DDOT>0</MEAN_MOTION_DDOT></tleParameters></data></segment></body></omm>
<omm id="CCSDS_OMM_VERS" version="2.0">
<header><CREATION_DATE/><ORIGINATOR/></header><body><segment><metadata><OBJECT_NAME>ORBCOMM FM40</OBJECT_NAME><OBJECT_ID>2008-031F</OBJECT_ID><CENTER_NAME>EARTH</CENTER_NAME><REF_FRAME>TEME</REF_FRAME><TIME_SYSTEM>UTC</TIME_SYSTEM><MEAN_ELEMENT_THEORY>SGP4</MEAN_ELEMENT_THEORY></metadata><data><meanElements><EPOCH>2025-05-10T18:59:38.834880</EPOCH><MEAN_MOTION>14.81860735</MEAN_MOTION><ECCENTRICITY>.0006867</ECCENTRICITY><INCLINATION>48.4393</INCLINATION><RA_OF_ASC_NODE>146.0549</RA_OF_ASC_NODE><ARG_OF_PERICENTER>232.3952</ARG_OF_PERICENTER><MEAN_ANOMALY>297.7321</MEAN_ANOMALY></meanElements><tleParameters><EPHEMERIS_TYPE>0</EPHEMERIS_TYPE><CLASSIFICATION_TYPE>U</CLASSIFICATION_TYPE><NORAD_CAT_ID>33065</NORAD_CAT_ID><ELEMENT_SET_NO>999</ELEMENT_SET_NO><REV_AT_EPOCH>90861</REV_AT_EPOCH><BSTAR>.27662E-3</BSTAR><MEAN_MOTION_DOT>.1996E-4</MEAN_MOTION_DOT><MEAN_MOTION_DDOT>0</MEAN_MOTION_DDOT></tleParameters></data></segment></body></omm>
<omm id="CCSDS_OMM_VERS" version="2.0">
<header><CREATION_DATE/><ORIGINATOR/></header><body><segment><metadata><OBJECT_NAME>VESSELSAT 1</OBJECT_NAME><OBJECT_ID>2011-058C</OBJECT_ID><CENTER_NAME>EARTH</CENTER_NAME><REF_FRAME>TEME</REF_FRAME><TIME_SYSTEM>UTC</TIME_SYSTEM><MEAN_ELEMENT_THEORY>SGP4</MEAN_ELEMENT_THEORY></metadata><data><meanElements><EPOCH>2025-05-10T20:09:41.235840</EPOCH><MEAN_MOTION>14.11347181</MEAN_MOTION><ECCENTRICITY>.0013689</ECCENTRICITY><INCLINATION>19.9633</INCLINATION><RA_OF_ASC_NODE>319.8754</RA_OF_ASC_NODE><ARG_OF_PERICENTER>135.5656</ARG_OF_PERICENTER><MEAN_ANOMALY>224.5848</MEAN_ANOMALY></meanElements><tleParameters><EPHEMERIS_TYPE>0</EPHEMERIS_TYPE><CLASSIFICATION_TYPE>U</CLASSIFICATION_TYPE><NORAD_CAT_ID>37840</NORAD_CAT_ID><ELEMENT_SET_NO>999</ELEMENT_SET_NO><REV_AT_EPOCH>70102</REV_AT_EPOCH><BSTAR>.63868E-4</BSTAR><MEAN_MOTION_DOT>.382E-5</MEAN_MOTION_DOT><MEAN_MOTION_DDOT>0</MEAN_MOTION_DDOT></tleParameters></data></segment></body></omm>
<omm id="CCSDS_OMM_VERS" version="2.0">
<header><CREATION_DATE/><ORIGINATOR/></header><body><segment><metadata><OBJECT_NAME>ORBCOMM FM109</OBJECT_NAME><OBJECT_ID>2014-040A</OBJECT_ID><CENTER_NAME>EARTH</CENTER_NAME><REF_FRAME>TEME</REF_FRAME><TIME_SYSTEM>UTC</TIME_SYSTEM><MEAN_ELEMENT_THEORY>SGP4</MEAN_ELEMENT_THEORY></metadata><data><meanElements><EPOCH>2025-05-10T15:15:54.115200</EPOCH><MEAN_MOTION>14.58122222</MEAN_MOTION><ECCENTRICITY>.0001894</ECCENTRICITY><INCLINATION>47.0023</INCLINATION><RA_OF_ASC_NODE>193.6340</RA_OF_ASC_NODE><ARG_OF_PERICENTER>201.9808</ARG_OF_PERICENTER><MEAN_ANOMALY>158.0996</MEAN_ANOMALY></meanElements><tleParameters><EPHEMERIS_TYPE>0</EPHEMERIS_TYPE><CLASSIFICATION_TYPE>U</CLASSIFICATION_TYPE><NORAD_CAT_ID>40086</NORAD_CAT_ID><ELEMENT_SET_NO>999</ELEMENT_SET_NO><REV_AT_EPOCH>57558</REV_AT_EPOCH><BSTAR>.15401E-3</BSTAR><MEAN_MOTION_DOT>.546E-5</MEAN_MOTION_DOT><MEAN_MOTION_DDOT>0</MEAN_MOTION_DDOT></tleParameters></data></segment></body></omm>
<omm id="CCSDS_OMM_VERS" version="2.0">
<header><CREATION_DATE/><ORIGINATOR/></header><body><segment><metadata><OBJECT_NAME>ORBCOMM FM107</OBJECT_NAME><OBJECT_ID>2014-040B</OBJECT_ID><CENTER_NAME>EARTH</CENTER_NAME><REF_FRAME>TEME</REF_FRAME><TIME_SYSTEM>UTC</TIME_SYSTEM><MEAN_ELEMENT_THEORY>SGP4</MEAN_ELEMENT_THEORY></metadata><data><meanElements><EPOCH>2025-05-10T20:55:35.647104</EPOCH><MEAN_MOTION>14.58187233</MEAN_MOTION><ECCENTRICITY>.0000477</ECCENTRICITY><INCLINATION>47.0041</INCLINATION><RA_OF_ASC_NODE>193.4986</RA_OF_ASC_NODE><ARG_OF_PERICENTER>172.1096</ARG_OF_PERICENTER><MEAN_ANOMALY>187.9797</MEAN_ANOMALY></meanElements><tleParameters><EPHEMERIS_TYPE>0</EPHEMERIS_TYPE><CLASSIFICATION_TYPE>U</CLASSIFICATION_TYPE><NORAD_CAT_ID>40087</NORAD_CAT_ID><ELEMENT_SET_NO>999</ELEMENT_SET_NO><REV_AT_EPOCH>57569</REV_AT_EPOCH><BSTAR>.16609E-3</BSTAR><MEAN_MOTION_DOT>.604E-5</MEAN_MOTION_DOT><MEAN_MOTION_DDOT>0</MEAN_MOTION_DDOT></tleParameters></data></segment></body></omm>
<omm id="CCSDS_OMM_VERS" version="2.0">
<header><CREATION_DATE/><ORIGINATOR/></header><body><segment><metadata><OBJECT_NAME>ORBCOMM FM106</OBJECT_NAME><OBJECT_ID>2014-040C</OBJECT_ID><CENTER_NAME>EARTH</CENTER_NAME><REF_FRAME>TEME</REF_FRAME><TIME_SYSTEM>UTC</TIME_SYSTEM><MEAN_ELEMENT_THEORY>SGP4</MEAN_ELEMENT_THEORY></metadata><data><meanElements><EPOCH>2025-05-10T23:17:32.879616</EPOCH><MEAN_MOTION>14.69367048</MEAN_MOTION><ECCENTRICITY>.0017402</ECCENTRICITY><INCLINATION>47.0623</INCLINATION><RA_OF_ASC_NODE>18.1118</RA_OF_ASC_NODE><ARG_OF_PERICENTER>254.5181</ARG_OF_PERICENTER><MEAN_ANOMALY>105.3788</MEAN_ANOMALY></meanElements><tleParameters><EPHEMERIS_TYPE>0</EPHEMERIS_TYPE><CLASSIFICATION_TYPE>U</CLASSIFICATION_TYPE><NORAD_CAT_ID>40088</NORAD_CAT_ID><ELEMENT_SET_NO>999</ELEMENT_SET_NO><REV_AT_EPOCH>57800</REV_AT_EPOCH><BSTAR>.21094E-3</BSTAR><MEAN_MOTION_DOT>.1073E-4</MEAN_MOTION_DOT><MEAN_MOTION_DDOT>0</MEAN_MOTION_DDOT></tleParameters></data></segment></body></omm>
<omm id="CCSDS_OMM_VERS" version="2.0">
<header><CREATION_DATE/><ORIGINATOR/></header><body><segment><metadata><OBJECT_NAME>ORBCOMM FM111</OBJECT_NAME><OBJECT_ID>2014-040D</OBJECT_ID><CENTER_NAME>EARTH</CENTER_NAME><REF_FRAME>TEME</REF_FRAME><TIME_SYSTEM>UTC</TIME_SYSTEM><MEAN_ELEMENT_THEORY>SGP4</MEAN_ELEMENT_THEORY></metadata><data><meanElements><EPOCH>2025-05-10T16:58:02.958816</EPOCH><MEAN_MOTION>14.86121743</MEAN_MOTION><ECCENTRICITY>.0030076</ECCENTRICITY><INCLINATION>47.0013</INCLINATION><RA_OF_ASC_NODE>234.5919</RA_OF_ASC_NODE><ARG_OF_PERICENTER>10.6121</ARG_OF_PERICENTER><MEAN_ANOMALY>349.5404</MEAN_ANOMALY></meanElements><tleParameters><EPHEMERIS_TYPE>0</EPHEMERIS_TYPE><CLASSIFICATION_TYPE>U</CLASSIFICATION_TYPE><NORAD_CAT_ID>40089</NORAD_CAT_ID><ELEMENT_SET_NO>999</ELEMENT_SET_NO><REV_AT_EPOCH>58465</REV_AT_EPOCH><BSTAR>.33081E-3</BSTAR><MEAN_MOTION_DOT>.2736E-4</MEAN_MOTION_DOT><MEAN_MOTION_DDOT>0</MEAN_MOTION_DDOT></tleParameters></data></segment></body></omm>
<omm id="CCSDS_OMM_VERS" version="2.0">
<header><CREATION_DATE/><ORIGINATOR/></header><body><segment><metadata><OBJECT_NAME>ORBCOMM FM104</OBJECT_NAME><OBJECT_ID>2014-040E</OBJECT_ID><CENTER_NAME>EARTH</CENTER_NAME><REF_FRAME>TEME</REF_FRAME><TIME_SYSTEM>UTC</TIME_SYSTEM><MEAN_ELEMENT_THEORY>SGP4</MEAN_ELEMENT_THEORY></metadata><data><meanElements><EPOCH>2025-05-10T18:01:11.536608</EPOCH><MEAN_MOTION>14.56599187</MEAN_MOTION><ECCENTRICITY>.0015743</ECCENTRICITY><INCLINATION>47.0047</INCLINATION><RA_OF_ASC_NODE>227.2288</RA_OF_ASC_NODE><ARG_OF_PERICENTER>31.5071</ARG_OF_PERICENTER><MEAN_ANOMALY>328.6753</MEAN_ANOMALY></meanElements><tleParameters><EPHEMERIS_TYPE>0</EPHEMERIS_TYPE><CLASSIFICATION_TYPE>U</CLASSIFICATION_TYPE><NORAD_CAT_ID>40090</NORAD_CAT_ID><ELEMENT_SET_NO>999</ELEMENT_SET_NO><REV_AT_EPOCH>57516</REV_AT_EPOCH><BSTAR>.16982E-3</BSTAR><MEAN_MOTION_DOT>.595E-5</MEAN_MOTION_DOT><MEAN_MOTION_DDOT>0</MEAN_MOTION_DDOT></tleParameters></data></segment></body></omm>

</ndm>
