ORBCOMM FM37            
1 33064U 08031E   25130.82285431  .00001409  00000+0  21382-3 0  9994
2 33064  48.4387 161.2494 0005648 221.0065 309.1212 14.79650265908514
ORBCOMM FM40            
1 33065U 08031F   25130.79142170  .00001996  00000+0  27662-3 0  9991
2 33065  48.4393 146.0549 0006867 232.3952 297.7321 14.81860735908610
VESSELSAT 1             
1 37840U 11058C   25130.84006060  .00000382  00000+0  63868-4 0  9999
2 37840  19.9633 319.8754 0013689 135.5656 224.5848 14.11347181701024
ORBCOMM FM109           
1 40086U 14040A   25130.63604300  .00000546  00000+0  15401-3 0  9998
2 40086  47.0023 193.6340 0001894 201.9808 158.0996 14.58122222575589
ORBCOMM FM107           
1 40087U 14040B   25130.87194036  .00000604  00000+0  16609-3 0  9991
2 40087  47.0041 193.4986 0000477 172.1096 187.9797 14.58187233575693
ORBCOMM FM106           
1 40088U 14040C   25130.97051944  .00001073  00000+0  21094-3 0  9998
2 40088  47.0623  18.1118 0017402 254.5181 105.3788 14.69367048578004
ORBCOMM FM111           
1 40089U 14040D   25130.70697869  .00002736  00000+0  33081-3 0  9998
2 40089  47.0013 234.5919 0030076  10.6121 349.5404 14.86121743584652
ORBCOMM FM104           
1 40090U 14040E   25130.75082797  .00000595  00000+0  16982-3 0  9995
2 40090  47.0047 227.2288 0015743  31.5071 328.6753 14.56599187575168
